194P/LINEAR,e,11.9814,349.6073,129.3860,4.102529,0.1186114,0.57136617,283.1355,04/24.0/2022,2000,g 16.0,4.0
# From MPEC 2021-S45
195P/Hill,e,36.3322,243.1252,249.2468,6.506193,0.0593901,0.31384535,289.3188,04/24.0/2022,2000,g  8.5,4.0
# From MPC 92985
196P/Tichy,e,19.2961,24.1196,12.0958,3.807048,0.1326849,0.42871098,334.9919,04/24.0/2022,2000,g 13.5,4.0
# From MPC 94676
197P/LINEAR,e,25.5281,66.3683,188.7489,2.868020,0.2029228,0.62940752,313.7903,04/24.0/2022,2000,g 16.5,2.0
# From NK 1596
198P/ODAS,e,1.3386,358.2457,69.1761,3.597503,0.1444449,0.44383748,177.2189,04/24.0/2022,2000,g  9.0,4.0
# From MPEC 2022-H04
199P/Shoemaker,e,24.9322,92.3614,191.7323,5.888603,0.0689740,0.50573235,327.5537,04/24.0/2022,2000,g 10.0,4.0
# From MPEC 2022-C56
200P/Larsen,e,12.0982,234.7666,134.1988,4.943839,0.0896618,0.33269950,89.6000,04/24.0/2022,2000,g  9.0,4.0
# From MPC 93588
201P/LONEOS,e,5.7394,19.7455,41.5459,3.354489,0.1604222,0.63714418,53.3086,04/24.0/2022,2000,g 14.0,4.0
# From MPEC 2021-N06
202P/Scotti,e,2.1155,177.4335,276.3514,4.091787,0.1190788,0.26052963,269.5950,04/24.0/2022,2000,g 13.5,4.0
# From MPEC 2021-S45
203P/Korlevic,e,2.9726,290.3229,154.7782,4.670194,0.0976566,0.31538193,76.2051,04/24.0/2022,2000,g 14.5,2.0
# From MPC 98566
204P/LINEAR-NEAT,e,6.5960,108.5048,356.6186,3.582134,0.1453756,0.48785659,329.9344,04/24.0/2022,2000,g 14.0,4.0
# From MPEC 2021-W31
205P/Giacobini,e,15.3062,179.6022,154.1798,3.543165,0.1477805,0.56817073,14.8229,04/24.0/2022,2000,g 13.0,4.0
# From MPC 75725
206P/Barnard-Boattini,e,33.6355,202.3365,189.5032,3.488988,0.1512359,0.55146583,62.8305,04/24.0/2022,2000,g 19.0,4.0
# From MPC 75725
207P/NEAT,e,10.1959,198.2085,273.0608,3.875171,0.1292016,0.75867607,276.3005,04/24.0/2022,2000,g 16.0,4.0
# From MPEC 2020-W26
208P/McMillan,e,4.4120,36.3399,310.5234,4.043703,0.1212091,0.37410349,256.6822,04/24.0/2022,2000,g 12.5,4.0
# From MPC 90771
209P/LINEAR,e,21.2571,62.7721,152.4459,2.959898,0.1935481,0.67308232,202.6130,04/24.0/2022,2000,g 17.0,2.0
# From MPC105242
210P/Christensen,e,10.2671,93.8184,345.8932,3.163537,0.1751639,0.83338010,130.6873,04/24.0/2022,2000,g 13.5,4.0
# From MPEC 2022-ED3
211P/Hill,e,18.9214,117.1312,4.2819,3.546040,0.1476007,0.34360182,335.8506,04/24.0/2022,2000,g 12.5,4.0
# From MPEC 2021-F20
212P/NEAT,e,22.1764,98.1664,14.0703,3.893978,0.1282667,0.58735685,266.0799,04/24.0/2022,2000,g 17.0,2.0
# From MPEC 2022-GA9
213P/VanNess,e,10.3816,311.2949,5.7024,3.347287,0.1609403,0.40824828,268.8166,04/24.0/2022,2000,g 10.5,4.0
# From MPC 92986
214P/LINEAR,e,15.1834,348.2490,190.1974,3.619545,0.1431275,0.48587522,337.7794,04/24.0/2022,2000,g 13.0,4.0
# From MPEC 2022-F14
215P/NEAT,e,10.5790,56.6847,262.2981,4.329408,0.1094111,0.16656028,97.0129,04/24.0/2022,2000,g 11.0,4.0
# From MPC100284
216P/LINEAR,e,9.0654,359.8136,151.4724,3.863972,0.1297637,0.44802899,279.1985,04/24.0/2022,2000,g 13.0,4.0
# From MPEC 2021-N06
217P/LINEAR,e,12.8631,125.4588,246.8813,3.949629,0.1255653,0.68912425,218.5351,04/24.0/2022,2000,g 12.0,4.0
# From MPEC 2020-K19
218P/LINEAR,e,2.7292,175.9836,59.6583,3.090758,0.1813872,0.62241234,102.8804,04/24.0/2022,2000,g 16.0,4.0
# From MPC100284
219P/LINEAR,e,11.5361,230.9543,107.5090,3.648239,0.1414423,0.35413979,266.5804,04/24.0/2022,2000,g 11.0,4.0
# From MPEC 2021-BE3
220P/McNaught,e,8.1288,150.1019,180.5714,3.116614,0.1791347,0.50163397,89.4530,04/24.0/2022,2000,g 15.0,4.0
# From MPEC 2021-J28
221P/LINEAR,e,11.4274,229.6950,40.1356,3.456894,0.1533469,0.49285052,19.4598,04/24.0/2022,2000,g 14.5,4.0
# From MPC 92277
222P/LINEAR,e,5.0985,6.7762,346.2626,2.899122,0.1996661,0.71477701,210.3087,04/24.0/2022,2000,g 20.0,4.0
# From MPEC 2021-S45
223P/Skiff,e,27.0267,346.7708,37.8263,4.158874,0.1162092,0.41630948,137.3502,04/24.0/2022,2000,g 12.0,4.0
# From MPC 75727
224P/LINEAR-NEAT,e,13.3032,40.0431,16.6521,3.446057,0.1540708,0.40628910,335.5144,04/24.0/2022,2000,g 15.5,4.0
# From MPC 75727
225P/LINEAR,e,21.3661,14.2024,3.8889,3.649008,0.1413975,0.63836618,293.3893,04/24.0/2022,2000,g 18.0,4.0
# From MPC106349
226P/Pigott-LINEAR-Kowalski,e,44.0376,54.0062,341.0497,3.766832,0.1348154,0.52880055,277.4503,04/24.0/2022,2000,g 12.5,4.0
# From MPC102956
227P/Catalina-LINEAR,e,7.1510,39.2167,101.7997,3.489310,0.1512149,0.53101446,257.4839,04/24.0/2022,2000,g 16.5,2.0
# From MPEC 2020-L06
228P/LINEAR,e,7.9129,30.9839,115.0126,4.168716,0.1157979,0.17622492,89.8727,04/24.0/2022,2000,g 14.5,2.0
# From MPC106349
229P/Gibbs,e,26.0923,157.9110,223.9975,3.928057,0.1266011,0.37761031,227.5130,04/24.0/2022,2000,g 13.0,4.0
# From MPEC 2022-GA9
230P/LINEAR,e,15.4702,106.9843,313.4311,3.451013,0.1537390,0.54541511,5.4833,04/24.0/2022,2000,g 13.0,4.0
# From MPC112394
231P/LINEAR-NEAT,e,12.3200,133.0137,44.0240,4.039828,0.1213835,0.24513925,126.4397,04/24.0/2022,2000,g 14.1,4.0
# From MPC112394
232P/Hill,e,14.6390,56.0172,53.3051,4.477208,0.1040383,0.33436067,115.9439,04/24.0/2022,2000,g 11.5,4.0
# From MPEC 2021-N06
233P/La Sagra,e,11.2858,74.9155,26.9971,3.029391,0.1869266,0.41191468,106.4385,04/24.0/2022,2000,g 15.0,4.0
# From MPC110497
234P/LINEAR,e,11.5353,179.5709,357.2332,3.798372,0.1331398,0.25572265,238.3423,04/24.0/2022,2000,g 12.0,4.0
# From MPC110497
235P/LINEAR,e,9.0924,202.7869,333.5012,3.941773,0.1259409,0.33092304,187.8912,04/24.0/2022,2000,g 12.0,4.0
# From MPC107688
236P/LINEAR,e,16.3433,245.5924,119.2855,3.729143,0.1368644,0.50926657,220.8790,04/24.0/2022,2000,g 14.0,4.0
# From MPEC 2022-GA9
237P/LINEAR,e,14.0147,245.3705,25.2446,3.512153,0.1497421,0.43428486,302.2546,04/24.0/2022,2000,g 14.5,2.0
# From MPC107688
238P/Read,e,1.2641,51.6239,324.2496,3.168076,0.1747876,0.25211172,352.5586,04/24.0/2022,2000,g 14.5,4.0
# From MPEC 2021-F20
239P/LINEAR,e,11.2989,255.9168,220.4075,4.468890,0.1043289,0.63009137,125.2787,04/24.0/2022,2000,g 17.5,2.0
# From MPEC 2021-F20
240P/NEAT,e,23.5203,74.9079,351.9431,3.865379,0.1296928,0.44939980,186.6474,04/24.0/2022,2000,g 12.1,4.0
# From MPEC 2022-GA9
241P/LINEAR,e,21.1056,305.4836,111.4394,4.919014,0.0903414,0.61016680,24.5854,04/24.0/2022,2000,g 13.5,4.0
# From MPEC 2021-S45
242P/Spahr,e,32.5068,180.3801,245.7020,5.492711,0.0765639,0.27848181,284.8814,04/24.0/2022,2000,g  8.0,4.0
# From MPC111774
243P/NEAT,e,7.6405,87.6179,283.5802,3.830420,0.1314724,0.36045922,175.6100,04/24.0/2022,2000,g 12.5,4.0
# From MPEC 2022-ED3
244P/Scotti,e,2.2594,353.9904,93.0658,4.894867,0.0910108,0.19905211,341.1652,04/24.0/2022,2000,g  9.0,4.0
# From MPEC 2022-CN4
245P/WISE,e,21.1949,316.6549,316.8806,4.046047,0.1211038,0.45663417,186.0142,04/24.0/2022,2000,g 14.0,4.0
# From MPEC 2021-WD8
246P/NEAT,e,15.9681,78.6256,176.6855,4.027742,0.1219303,0.28863782,51.6771,04/24.0/2022,2000,g 10.5,4.0
# From MPEC 2021-F20
247P/LINEAR,e,13.6560,54.0170,47.4325,3.968291,0.1246806,0.62435580,154.5717,04/24.0/2022,2000,g 16.5,2.0
# From MPC 75730
248P/Gibbs,e,6.3504,207.7955,209.8513,5.991282,0.0672085,0.63874832,276.6351,04/24.0/2022,2000,g 14.0,4.0
# From MPEC 2021-S45
249P/LINEAR,e,8.3898,239.1245,65.6868,2.763278,0.2145691,0.81993617,142.3691,04/24.0/2022,2000,g 15.5,4.0
# From MPC110497
250P/Larson,e,13.1562,73.4161,46.1489,3.765959,0.1348624,0.39942714,208.9505,04/24.0/2022,2000,g 14.5,4.0
# From MPC104795
251P/LINEAR,e,23.3876,219.3591,31.2823,3.511855,0.1497612,0.50469853,261.1247,04/24.0/2022,2000,g 16.5,2.0
# From MPEC 2021-S45
252P/LINEAR,e,10.4104,190.9353,343.3305,3.049792,0.1850541,0.67179449,53.0584,04/24.0/2022,2000,g 17.5,4.0
# From MPEC 2020-FB5
253P/PANSTARRS,e,4.9435,146.8850,230.6612,3.465631,0.1527674,0.41431651,220.8552,04/24.0/2022,2000,g 14.5,4.0
# From MPEC 2022-GA9
254P/McNaught,e,32.5713,129.1783,219.5811,4.613718,0.0994552,0.31978222,56.7789,04/24.0/2022,2000,g 11.0,4.0
# From MPEC 2021-UA9
255P/Levy,e,13.4111,275.6744,185.9985,2.943272,0.1951904,0.71163363,333.3978,04/24.0/2022,2000,g 14.1,4.0
# From MPEC 2022-C56
256P/LINEAR,e,27.6202,81.3425,124.2177,4.638979,0.0986439,0.41798528,328.2017,04/24.0/2022,2000,g 14.0,2.0
# From MPEC 2021-Y10
257P/Catalina,e,20.2207,207.7266,117.7058,3.762925,0.1350255,0.43031181,79.6988,04/24.0/2022,2000,g 11.5,4.0
# From MPEC 2021-U31
258P/PANSTARRS,e,6.7462,126.2435,25.8915,4.396365,0.1069211,0.20842293,72.1513,04/24.0/2022,2000,g 13.0,4.0
# From MPC106349
259P/Garradd,e,15.8905,51.4424,257.6463,2.731001,0.2183842,0.33884385,16.2933,04/24.0/2022,2000,g 15.5,4.0
# From MPEC 2022-H30
260P/McNaught,e,15.0587,349.3385,18.4240,3.623125,0.1429154,0.60930425,136.7081,04/24.0/2022,2000,g 13.3,4.0
# From MPEC 2021-J28
261P/Larson,e,6.0735,291.1411,67.2041,3.490434,0.1511419,0.42333726,157.1402,04/24.0/2022,2000,g 14.0,4.0
# From MPC 82322
262P/McNaught-Russell,e,29.2606,217.8703,171.0340,6.872886,0.0547010,0.81606184,187.5429,04/24.0/2022,2000,g 13.5,4.0
# From MPC 89018
263P/Gibbs,e,11.5210,105.5311,34.9778,3.043251,0.1856510,0.59355443,307.7292,04/24.0/2022,2000,g  9.0,4.0
# From MPC114608
264P/Larsen,e,25.2295,220.4117,346.7204,3.889297,0.1284983,0.37553244,127.6747,04/24.0/2022,2000,g 13.0,4.0
# From MPC 79870
265P/LINEAR,e,14.3650,342.9258,33.4571,4.254425,0.1123163,0.64758513,49.2948,04/24.0/2022,2000,g 14.5,4.0
# From MPEC 2021-F20
266P/Christensen,e,3.4271,4.9985,97.7141,3.532672,0.1484394,0.33959202,109.0712,04/24.0/2022,2000,g 14.7,4.0
# From MPC114608
267P/LONEOS,e,6.1412,228.5866,114.2009,3.211335,0.1712678,0.61440076,234.6967,04/24.0/2022,2000,g 19.5,4.0
# From MPC 92277
268P/Bernardi,e,15.9120,127.1033,359.8024,4.557439,0.1013031,0.47792265,261.5480,04/24.0/2022,2000,g 14.0,4.0
# From MPC104795
269P/Jedicke,e,7.0770,241.7266,225.7638,7.072444,0.0524022,0.43093504,144.8386,04/24.0/2022,2000,g 10.0,4.0
# From MPC 88332
270P/Gehrels,e,2.9222,223.0064,209.7794,6.661978,0.0573191,0.46828910,185.7971,04/24.0/2022,2000,g  8.0,4.0
# From MPC 92277
271P/van Houten-Lemmon,e,6.8721,9.3174,36.3857,7.039217,0.0527737,0.39507863,169.1421,04/24.0/2022,2000,g 11.0,4.0
# From MPEC 2022-C56
272P/NEAT,e,18.0746,109.4704,27.9016,4.459679,0.1046523,0.45463067,351.2021,04/24.0/2022,2000,g 16.0,2.0
